1 41549U 16030A   19093.37960822  .00000005  00000-0  00000-0 0  9997
2 41549  56.6456 294.0267 0002218 352.1992   7.8211  1.70474783 17807
1 41549U 16030A   19093.96618967  .00000006  00000-0  00000+0 0  9992
2 41549  56.6452 294.0107 0002195 352.3820   7.6360  1.70474768 17796
1 41549U 16030A   19096.31251178  .00000006  00000-0  00000+0 0  9991
2 41549  56.6427 293.9466 0002099 352.4297   7.5771  1.70474711 17834
1 41549U 16030A   19098.65883877  .00000006  00000-0  00000-0 0  9998
2 41549  56.6411 293.8825 0001997 352.6016   7.3972  1.70474660 17870
1 41549U 16030A   19099.24542118  .00000006  00000-0  00000-0 0  9994
2 41549  56.6418 293.8666 0002003 352.7415   7.2565  1.70474668 17902
1 41549U 16030A   19100.41859091  .00000008  00000-0  00000-0 0  9999
2 41549  56.6410 293.8345 0001989 352.9479   7.0504  1.70474653 17929
1 41549U 16030A   19101.59176362  .00000009  00000-0  00000-0 0  9993
2 41549  56.6401 293.8024 0001972 353.0393   6.9609  1.70474638 17941
1 41549U 16030A   19101.59176425  .00000009  00000-0  00000+0 0  9992
2 41549  56.6400 293.8024 0001977 353.0123   6.9879  1.70474642 17928
1 41549U 16030A   19103.93810856  .00000005  00000-0  00000+0 0  9991
2 41549  56.6387 293.7382 0001934 353.1030   6.9003  1.70474626 17964
1 41549U 16030A   19104.52469240  .00000003  00000-0  00000-0 0  9993
2 41549  56.6382 293.7222 0001939 353.0443   6.9585  1.70474632 17999
1 41549U 16030A   19106.28443635 -.00000010  00000-0  00000-0 0  9997
2 41549  56.6369 293.6740 0001901 352.6530   7.3433  1.70474645 18025
1 41549U 16030A   19106.28443665 -.00000010  00000-0  00000+0 0  9999
2 41549  56.6367 293.6740 0001911 352.6632   7.3331  1.70474641 18008
1 41549U 16030A   19108.63075074 -.00000029  00000-0  00000+0 0  9995
2 41549  56.6350 293.6099 0001851 352.1393   7.8412  1.70474689 18040
1 41549U 16030A   19110.97707059 -.00000036  00000-0  00000+0 0  9998
2 41549  56.6328 293.5458 0001791 351.5346   8.4344  1.70474784 18088
1 41549U 16030A   19112.73682322 -.00000032  00000-0  00000-0 0  9996
2 41549  56.6312 293.4977 0001757 351.3103   8.6579  1.70474840 18138
1 41549U 16030A   19113.32340930 -.00000030  00000-0  00000+0 0  9995
2 41549  56.6307 293.4817 0001738 351.1236   8.8456  1.70474864 18120
1 41549U 16030A   19113.90999631 -.00000028  00000-0  00000-0 0  9995
2 41549  56.6301 293.4657 0001727 350.8671   9.1036  1.70474873 18154
1 41549U 16030A   19115.66975710 -.00000022  00000-0  00000+0 0  9995
2 41549  56.6296 293.4177 0001683 350.1445   9.8317  1.70474960 18164
1 41549U 16030A   19118.60268751 -.00000018  00000-0  00000+0 0  9997
2 41549  56.6272 293.3376 0001611 348.9202  11.0612  1.70474983 18219
1 41549U 16030A   19119.18927107 -.00000017  00000-0  00000-0 0  9998
2 41549  56.6268 293.3216 0001592 348.7341  11.2470  1.70474984 18245
1 41549U 16030A   19121.53559825 -.00000016  00000-0  00000+0 0  9996
2 41549  56.6249 293.2575 0001528 348.4278  11.5477  1.70474965 18267
1 41549U 16030A   19122.12217866 -.00000016  00000-0  00000-0 0  9999
2 41549  56.6245 293.2416 0001505 347.8930  12.0802  1.70474948 18292
1 41549U 16030A   19122.70875921 -.00000017  00000-0  00000-0 0  9996
2 41549  56.6242 293.2256 0001495 347.7272  12.2436  1.70474937 18302
1 41549U 16030A   19123.29533924 -.00000017  00000-0  00000-0 0  9995
2 41549  56.6236 293.2096 0001471 347.0625  12.9058  1.70474925 18311
1 41549U 16030A   19125.64166540 -.00000017  00000-0  00000+0 0  9991
2 41549  56.6213 293.1456 0001398 345.0863  14.8751  1.70474867 18333
1 41549U 16030A   19127.98800523 -.00000014  00000-0  00000+0 0  9993
2 41549  56.6192 293.0817 0001332 342.9053  17.0576  1.70474824 18371
1 41549U 16030A   19128.57459205 -.00000014  00000-0  00000-0 0  9997
2 41549  56.6189 293.0657 0001323 342.4156  17.5489  1.70474820 18406
1 41549U 16030A   19130.33435213 -.00000014  00000-0  00000+0 0  9996
2 41549  56.6175 293.0177 0001268 339.6762  20.2934  1.70474810 18413
1 41549U 16030A   19130.92093795 -.00000016  00000-0  00000-0 0  9999
2 41549  56.6171 293.0017 0001255 338.8733  21.0973  1.70474816 18448
1 41549U 16030A   19133.26727021 -.00000030  00000-0  00000+0 0  9990
2 41549  56.6146 292.9375 0001251 337.1038  22.8642  1.70474826 18466
1 41549U 16030A   19135.61358624 -.00000049  00000-0  00000+0 0  9990
2 41549  56.6125 292.8735 0001226 333.8792  26.0763  1.70474866 18503
1 41549U 16030A   19136.20016466 -.00000053  00000-0  00000-0 0  9997
2 41549  56.6122 292.8575 0001224 333.1873  26.7649  1.70474892 18535
1 41549U 16030A   19137.37332406 -.00000058  00000-0  00000-0 0  9996
2 41549  56.6115 292.8255 0001211 331.0974  28.8496  1.70474940 18556
1 41549U 16030A   19139.13307282 -.00000057  00000-0  00000+0 0  9994
2 41549  56.6104 292.7775 0001200 329.7662  30.1788  1.70474983 18564
1 41549U 16030A   19140.30624463 -.00000054  00000-0  00000-0 0  9996
2 41549  56.6096 292.7456 0001185 328.0104  31.9370  1.70475034 18604
1 41549U 16030A   19141.47941941 -.00000050  00000-0  00000-0 0  9994
2 41549  56.6091 292.7137 0001176 325.9996  33.9523  1.70475085 18620
1 41549U 16030A   19141.47941949 -.00000050  00000-0  00000+0 0  9991
2 41549  56.6090 292.7137 0001181 326.8538  33.0983  1.70475074 18604
1 41549U 16030A   19143.23918379 -.00000044  00000-0  00000-0 0  9992
2 41549  56.6078 292.6657 0001166 323.4702  36.4899  1.70475120 18655
1 41549U 16030A   19144.99894516 -.00000041  00000-0  00000+0 0  9998
2 41549  56.6061 292.6178 0001155 320.2762  39.6901  1.70475153 18660
1 41549U 16030A   19145.58553071 -.00000041  00000-0  00000-0 0  9993
2 41549  56.6057 292.6019 0001149 319.1474  40.8201  1.70475158 18694
1 41549U 16030A   19147.34528278 -.00000039  00000-0  00000+0 0  9996
2 41549  56.6040 292.5539 0001134 316.0970  43.8714  1.70475155 18704
1 41549U 16030A   19147.93186499 -.00000039  00000-0  00000-0 0  9997
2 41549  56.6036 292.5379 0001128 314.7177  45.2500  1.70475157 18732
1 41549U 16030A   19149.69160947 -.00000038  00000-0  00000+0 0  9990
2 41549  56.6019 292.4899 0001117 311.2067  48.7572  1.70475126 18741
1 41549U 16030A   19149.69160947 -.00000038  00000-0  00000-0 0  9991
2 41549  56.6019 292.4899 0001117 311.2067  48.7572  1.70475126 18763
1 41549U 16030A   19150.27819045 -.00000038  00000-0  00000-0 0  9997
2 41549  56.6013 292.4739 0001114 310.1996  49.7628  1.70475127 18760
1 41549U 16030A   19150.86477116 -.00000037  00000-0  00000-0 0  9990
2 41549  56.6008 292.4580 0001118 307.5730  52.3877  1.70475108 18785
1 41549U 16030A   19152.03793511 -.00000037  00000-0  00000+0 0  9990
2 41549  56.5998 292.4261 0001127 305.1150  54.8436  1.70475079 18783
1 41549U 16030A   19154.38427230 -.00000034  00000-0  00000+0 0  9999
2 41549  56.5976 292.3622 0001140 303.6738  56.2872  1.70475047 18829
1 41549U 16030A   19154.97085876 -.00000033  00000-0  00000-0 0  9990
2 41549  56.5970 292.3463 0001149 302.2365  57.7263  1.70475034 18855
1 41549U 16030A   19157.31721054 -.00000030  00000-0  00000+0 0  9992
2 41549  56.5950 292.2823 0001171 298.7913  61.1820  1.70474999 18874
1 41549U 16030A   19157.31721054 -.00000030  00000-0  00000-0 0  9993
2 41549  56.5950 292.2823 0001171 298.7913  61.1820  1.70474999 18896
1 41549U 16030A   19158.49038404 -.00000032  00000-0  00000-0 0  9995
2 41549  56.5943 292.2504 0001196 297.2443  62.7329  1.70475004 18915
1 41549U 16030A   19159.07696885 -.00000034  00000-0  00000-0 0  9995
2 41549  56.5939 292.2343 0001206 295.9406  64.0376  1.70475008 18929
1 41549U 16030A   19160.25013513 -.00000041  00000-0  00000+0 0  9995
2 41549  56.5930 292.2022 0001234 293.8397  66.1380  1.70475013 18925
1 41549U 16030A   19164.35619430 -.00000068  00000-0  00000+0 0  9999
2 41549  56.5898 292.0902 0001364 287.5572  72.4049  1.70475077 18991
1 41549U 16030A   19166.70252789 -.00000067  00000-0  00000+0 0  9999
2 41549  56.5880 292.0263 0001439 284.6605  75.3016  1.70475169 19034
1 41549U 16030A   19169.04887884 -.00000058  00000-0  00000+0 0  9999
2 41549  56.5860 291.9623 0001508 281.9107  78.0622  1.70475243 19074
1 41549U 16030A   19172.56840721 -.00000048  00000-0  00000+0 0  9998
2 41549  56.5831 291.8664 0001539 281.4096  78.5822  1.70475309 19139
1 41549U 16030A   19174.32816199 -.00000046  00000-0  00000-0 0  9995
2 41549  56.5807 291.8183 0001559 280.1953  79.8002  1.70475312 19181
1 41549U 16030A   19177.26107278 -.00000042  00000-0  00000+0 0  9997
2 41549  56.5774 291.7384 0001632 275.9443  84.0488  1.70475286 19214
1 41549U 16030A   19178.43423588 -.00000040  00000-0  00000-0 0  9991
2 41549  56.5765 291.7063 0001663 275.8531  84.1385  1.70475268 19250
1 41549U 16030A   19179.60740126 -.00000038  00000-0  00000+0 0  9997
2 41549  56.5755 291.6743 0001701 275.0257  84.9654  1.70475242 19252
1 41549U 16030A   19181.36715524 -.00000034  00000-0  00000-0 0  9994
2 41549  56.5747 291.6263 0001761 273.9460  86.0482  1.70475200 19301
1 41549U 16030A   19184.30009465 -.00000026  00000-0  00000+0 0  9991
2 41549  56.5722 291.5463 0001862 272.7247  87.2836  1.70475140 19339
1 41549U 16030A   19186.05985543 -.00000028  00000-0  00000-0 0  9998
2 41549  56.5706 291.4982 0001940 271.8652  88.1501  1.70475115 19389
1 41549U 16030A   19186.64644019 -.00000030  00000-0  00000+0 0  9995
2 41549  56.5701 291.4822 0001963 271.6436  88.3727  1.70475114 19370
1 41549U 16030A   19190.16592536 -.00000053  00000-0  00000+0 0  9998
2 41549  56.5671 291.3859 0002079 270.9310  89.0767  1.70475132 19436
1 41549U 16030A   19191.33908480 -.00000059  00000-0  00000-0 0  9994
2 41549  56.5662 291.3539 0002121 270.8013  89.2021  1.70475150 19477
1 41549U 16030A   19191.92566511 -.00000060  00000-0  00000-0 0  9996
2 41549  56.5655 291.3377 0002160 270.6249  89.3770  1.70475176 19482
1 41549U 16030A   19194.27200179 -.00000055  00000-0  00000+0 0  9995
2 41549  56.5635 291.2736 0002217 270.3414  89.6629  1.70475226 19507
